[{"OBJECT_NAME":"LANDSAT 8","OBJECT_ID":"2013-008A","EPOCH":"2026-03-09T22:26:29.137344","MEAN_MOTION":14.57131328,"ECCENTRICITY":0.00011995,"INCLINATION":98.1918,"RA_OF_ASC_NODE":140.6567,"ARG_OF_PERICENTER":91.5263,"MEAN_ANOMALY":268.6073,"EPHEMERIS_TYPE":0,"CLASSIFICATION_TYPE":"U","NORAD_CAT_ID":39084,"ELEMENT_SET_NO":999,"REV_AT_EPOCH":68344,"BSTAR":0.00012147251,"MEAN_MOTION_DOT":5.02e-6,"MEAN_MOTION_DDOT":0},{"OBJECT_NAME":"COSMOS 2251 DEB","OBJECT_ID":"1993-036BDU","EPOCH":"2026-03-08T11:28:22.540224","MEAN_MOTION":14.5609106,"ECCENTRICITY":0.00105057,"INCLINATION":74.0456,"RA_OF_ASC_NODE":352.1192,"ARG_OF_PERICENTER":58.4645,"MEAN_ANOMALY":301.7543,"EPHEMERIS_TYPE":0,"CLASSIFICATION_TYPE":"U","NORAD_CAT_ID":36558,"ELEMENT_SET_NO":999,"REV_AT_EPOCH":86516,"BSTAR":0.0011367486,"MEAN_MOTION_DOT":4.99e-5,"MEAN_MOTION_DDOT":0}]
